HAWK-11A                
1 62382U 24247F   26068.51231358  .00009457  00000+0  34106-3 0  9991
2 62382  44.9941 114.3328 0005466 327.3713  32.6832 15.28849427 67741
STARLINK-33836          
1 63642U 25083J   26068.16536240  .00000267  00000+0  19222-4 0  9992
2 63642  43.0029   8.4357 0000973 172.3981 187.6886 15.27557541 49984
